ONEWEB-0283             
1 49001U 21060AL  25093.67093659  .00000000  00000+0 -34660-4 0  9990
2 49001  87.9054 316.4092 0001833  77.1726 282.9610 13.16595152181780
ONEWEB-0284             
1 49002U 21060AM  25093.66459692 -.00000007  00000+0 -52059-4 0  9993
2 49002  87.9045 316.3770 0001393  85.1783 274.9507 13.16593926181767
ONEWEB-0285             
1 49075U 21075A   25093.85801066  .00000327  00000+0  87402-3 0  9998
2 49075  87.8817  78.0818 0001850  86.5759 273.5581 13.12443263177580
ONEWEB-0286             
1 49076U 21075B   25093.90569360 -.00000595  00000+0 -16889-2 0  9992
2 49076  87.8841  78.0703 0001962  94.1875 265.9477 13.12441968176947
ONEWEB-0287             
1 49077U 21075C   25093.72403424 -.00000030  00000+0 -11152-3 0  9994
2 49077  87.9003  93.3890 0001933 103.0945 257.0402 13.17646673175755
ONEWEB-0288             
1 49078U 21075D   25093.89192000 -.00000260  00000+0 -75830-3 0  9996
2 49078  87.8816  78.0712 0001742  89.2778 270.8550 13.12441380177568
ONEWEB-0289             
1 49079U 21075E   25093.75272037  .00000046  00000+0  86518-4 0  9997
2 49079  87.9004  93.4144 0001435  84.5870 275.5426 13.17646871176334
ONEWEB-0290             
1 49080U 21075F   25093.73583840 -.00000370  00000+0 -98718-3 0  9990
2 49080  87.9001  93.3745 0001505  71.1794 288.9500 13.17647905175748
